NORAD_CAT_ID,OBJECT_NAME,OBJECT_TYPE,EPOCH,MEAN_MOTION,ECCENTRICITY,INCLINATION,RA_OF_ASC_NODE,ARG_OF_PERICENTER,MEAN_ANOMALY,BSTAR,MEAN_MOTION_DOT,MEAN_MOTION_DDOT,TLE_LINE0,TLE_LINE1,TLE_LINE2,SEMIMAJOR_AXIS,PERIOD,APOGEE,PERIGEE,DECAYED
52335.0,STARLINK-3814,PAYLOAD,2024-02-19 04:47:59,15.08853832,0.0001439,53.2188,333.7075,118.3606,241.7531,2.1561e-05,5.5e-07,0.0,0 STARLINK-3814,1 52335U 22045E   24050.19998941  .00000055  00000-0  21561-4 0  9991,2 52335  53.2188 333.7075 0001439 118.3606 241.7531 15.08853832102499,6917.838,95.437,540.699,538.708,0.0
52335.0,STARLINK-3814,PAYLOAD,2024-02-19 19:06:28,15.08830417,0.0001477,53.2194,331.034,107.2064,252.909,1.3012e-05,-8.1e-07,0.0,0 STARLINK-3814,1 52335U 22045E   24050.79616713 -.00000081  00000-0  13012-4 0  9993,2 52335  53.2194 331.0340 0001477 107.2064 252.9090 15.08830417102587,6917.91,95.438,540.796,538.753,0.0
52335.0,STARLINK-3814,PAYLOAD,2024-02-19 22:17:15,15.08830606,0.0001477,53.2193,330.4395,104.9295,255.1861,1.2872e-05,-8.3e-07,0.0,0 STARLINK-3814,1 52335U 22045E   24050.92864726 -.00000083  00000-0  12872-4 0  9992,2 52335  53.2193 330.4395 0001477 104.9295 255.1861 15.08830606102603,6917.909,95.438,540.796,538.752,0.0
52335.0,STARLINK-3814,PAYLOAD,2024-02-20 01:28:01,15.08833841,0.000139,53.2186,329.8422,100.9338,259.1811,-5.5819e-06,-3.77e-06,0.0,0 STARLINK-3814,1 52335U 22045E   24051.06112623 -.00000377  00000-0 -55819-5 0  9996,2 52335  53.2186 329.8422 0001390 100.9338 259.1811 15.08833841102621,6917.899,95.438,540.726,538.803,0.0
52335.0,STARLINK-3814,PAYLOAD,2024-02-20 18:57:15,15.08837552,0.000176,53.2178,326.5709,128.0843,232.0308,3.2725e-05,2.33e-06,0.0,0 STARLINK-3814,1 52335U 22045E   24051.78976360  .00000233  00000-0  32725-4 0  9990,2 52335  53.2178 326.5709 0001760 128.0843 232.0308 15.08837552102733,6917.888,95.438,540.97,538.535,0.0
52335.0,STARLINK-3814,PAYLOAD,2024-02-20 22:08:00,15.08853455,0.0001246,53.2181,325.9785,102.2126,257.9006,7.6592e-05,9.32e-06,0.0,0 STARLINK-3814,1 52335U 22045E   24051.92223346  .00000932  00000-0  76592-4 0  9991,2 52335  53.2181 325.9785 0001246 102.2126 257.9006 15.08853455102754,6917.839,95.437,540.566,538.842,0.0
52335.0,STARLINK-3814,PAYLOAD,2024-02-21 01:18:47,15.08854417,0.000124,53.2184,325.3838,101.5827,258.5305,8.5386e-05,1.072e-05,0.0,0 STARLINK-3814,1 52335U 22045E   24052.05471182  .00001072  00000-0  85386-4 0  9996,2 52335  53.2184 325.3838 0001240 101.5827 258.5305 15.08854417102774,6917.836,95.437,540.559,538.844,0.0
52335.0,STARLINK-3814,PAYLOAD,2024-02-21 10:51:06,15.08841319,0.0001523,53.2191,323.5954,86.6056,273.511,7.4914e-05,9.05e-06,0.0,0 STARLINK-3814,1 52335U 22045E   24052.45216027  .00000905  00000-0  74914-4 0  9994,2 52335  53.2191 323.5954 0001523  86.6056 273.5110 15.08841319102837,6917.876,95.437,540.795,538.688,0.0
52335.0,STARLINK-3814,PAYLOAD,2024-02-21 21:58:49,15.0883094,0.0001984,53.2179,321.5172,83.7764,276.3455,7.0558e-05,8.35e-06,0.0,0 STARLINK-3814,1 52335U 22045E   24052.91585191  .00000835  00000-0  70558-4 0  9998,2 52335  53.2179 321.5172 0001984  83.7764 276.3455 15.08830940102907,6917.908,95.438,541.146,538.401,0.0
52335.0,STARLINK-3814,PAYLOAD,2024-02-22 02:44:58,15.08832991,0.0001531,53.2192,320.6293,91.2558,268.861,8.7394e-05,1.103e-05,0.0,0 STARLINK-3814,1 52335U 22045E   24053.11457049  .00001103  00000-0  87394-4 0  9996,2 52335  53.2192 320.6293 0001531  91.2558 268.8610 15.08832991102939,6917.902,95.438,540.826,538.708,0.0
52335.0,STARLINK-3814,PAYLOAD,2024-02-22 21:49:35,15.0884852,0.0001517,53.219,317.0614,91.9754,268.1412,2.6235e-05,1.3e-06,0.0,0 STARLINK-3814,1 52335U 22045E   24053.90944337  .00000130  00000-0  26235-4 0  9990,2 52335  53.2190 317.0614 0001517  91.9754 268.1412 15.08848520103055,6917.854,95.437,540.769,538.67,0.0
52335.0,STARLINK-3814,PAYLOAD,2024-02-23 01:00:22,15.08850202,0.0001547,53.2191,316.4666,92.3348,267.7821,5.1354e-05,5.3e-06,0.0,0 STARLINK-3814,1 52335U 22045E   24054.04192160  .00000530  00000-0  51354-4 0  9999,2 52335  53.2191 316.4666 0001547  92.3348 267.7821 15.08850202103074,6917.849,95.437,540.784,538.644,0.0
52335.0,STARLINK-3814,PAYLOAD,2024-02-23 10:32:41,15.08847301,0.00016,53.2188,314.6817,73.6839,286.4329,-2.6926e-05,-7.17e-06,0.0,0 STARLINK-3814,1 52335U 22045E   24054.43936438 -.00000717  00000-0 -26926-4 0  9992,2 52335  53.2188 314.6817 0001600  73.6839 286.4329 15.08847301103139,6917.858,95.437,540.83,538.616,0.0
52335.0,STARLINK-3814,PAYLOAD,2024-02-23 16:54:14,15.08834669,0.0001418,53.218,313.4951,80.7754,279.3398,0.00016202,2.291e-05,0.0,0 STARLINK-3814,1 52335U 22045E   24054.70432979  .00002291  00000-0  16202-3 0  9995,2 52335  53.2180 313.4951 0001418  80.7754 279.3398 15.08834669103173,6917.897,95.438,540.743,538.781,0.0
52335.0,STARLINK-3814,PAYLOAD,2024-02-23 23:15:46,15.0883298,0.0001469,53.2176,312.3031,84.2672,275.8487,9.9012e-05,1.288e-05,0.0,0 STARLINK-3814,1 52335U 22045E   24054.96929309  .00001288  00000-0  99012-4 0  9997,2 52335  53.2176 312.3031 0001469  84.2672 275.8487 15.08832980103218,6917.902,95.438,540.783,538.751,0.0
52335.0,STARLINK-3814,PAYLOAD,2024-02-24 10:23:28,15.08844474,0.0001544,53.2178,310.2217,82.4206,277.6962,9.3777e-05,1.205e-05,0.0,0 STARLINK-3814,1 52335U 22045E   24055.43296741  .00001205  00000-0  93777-4 0  9998,2 52335  53.2178 310.2217 0001544  82.4206 277.6962 15.08844474103286,6917.867,95.437,540.8,538.664,0.0
52335.0,STARLINK-3814,PAYLOAD,2024-02-25 10:14:14,15.08851303,0.0001597,53.2183,305.7607,79.8276,280.2896,0.00015992,2.259e-05,0.0,0 STARLINK-3814,1 52335U 22045E   24056.42655866  .00002259  00000-0  15992-3 0  9997,2 52335  53.2183 305.7607 0001597  79.8276 280.2896 15.08851303103431,6917.846,95.437,540.816,538.606,0.0
52335.0,STARLINK-3814,PAYLOAD,2024-02-25 19:46:33,15.08847216,0.0001566,53.2155,303.9773,90.9581,269.1591,0.00022373,3.275e-05,0.0,0 STARLINK-3814,1 52335U 22045E   24056.82400241  .00003275  00000-0  22373-3 0  9996,2 52335  53.2155 303.9773 0001566  90.9581 269.1591 15.08847216103495,6917.858,95.437,540.807,538.64,0.0
52335.0,STARLINK-3814,PAYLOAD,2024-02-25 22:57:20,15.0884516,0.0001635,53.218,303.3845,71.7316,288.3854,0.00015152,2.125e-05,0.0,0 STARLINK-3814,1 52335U 22045E   24056.95648264  .00002125  00000-0  15152-3 0  9999,2 52335  53.2180 303.3845 0001635  71.7316 288.3854 15.08845160103511,6917.865,95.437,540.861,538.599,0.0
52335.0,STARLINK-3814,PAYLOAD,2024-02-26 02:08:05,15.08854519,0.0001547,53.218,302.7855,102.0197,258.0969,0.0001691,2.405e-05,0.0,0 STARLINK-3814,1 52335U 22045E   24057.08895374  .00002405  00000-0  16910-3 0  9994,2 52335  53.2180 302.7855 0001547 102.0197 258.0969 15.08854519103533,6917.836,95.437,540.771,538.631,0.0
52335.0,STARLINK-3814,PAYLOAD,2024-02-26 19:37:21,15.08835032,0.0001755,53.2176,299.517,79.3975,280.7215,-3.9098e-05,-9.1e-06,0.0,0 STARLINK-3814,1 52335U 22045E   24057.81761424 -.00000910  00000-0 -39098-4 0  9997,2 52335  53.2176 299.5170 0001755  79.3975 280.7215 15.08835032103649,6917.896,95.438,540.975,538.546,0.0
52335.0,STARLINK-3814,PAYLOAD,2024-02-26 22:48:07,15.08833675,0.0001527,53.2166,298.9217,94.1411,265.9756,-5.0214e-05,-1.087e-05,0.0,0 STARLINK-3814,1 52335U 22045E   24057.95008891 -.00001087  00000-0 -50214-4 0  9993,2 52335  53.2166 298.9217 0001527  94.1411 265.9756 15.08833675103668,6917.9,95.438,540.821,538.708,0.0
52335.0,STARLINK-3814,PAYLOAD,2024-02-27 01:58:53,15.08834777,0.0001498,53.2164,298.3251,91.8085,268.3079,-4.3457e-05,-9.79e-06,0.0,0 STARLINK-3814,1 52335U 22045E   24058.08256908 -.00000979  00000-0 -43457-4 0  9992,2 52335  53.2164 298.3251 0001498  91.8085 268.3079 15.08834777103687,6917.896,95.438,540.798,538.725,0.0
52335.0,STARLINK-3814,PAYLOAD,2024-02-27 19:28:08,15.0883626,0.0001448,53.2164,295.0547,95.2124,264.9034,1.713e-05,-1.5e-07,0.0,0 STARLINK-3814,1 52335U 22045E   24058.81120966 -.00000015  00000-0  17130-4 0  9996,2 52335  53.2164 295.0547 0001448  95.2124 264.9034 15.08836260103790,6917.892,95.438,540.759,538.755,0.0
52335.0,STARLINK-3814,PAYLOAD,2024-02-27 22:38:54,15.0884073,0.0001421,53.216,294.4607,87.733,272.3825,9.2984e-05,1.192e-05,0.0,0 STARLINK-3814,1 52335U 22045E   24058.94368814  .00001192  00000-0  92984-4 0  9992,2 52335  53.2160 294.4607 0001421  87.7330 272.3825 15.08840730103813,6917.878,95.438,540.726,538.76,0.0
52335.0,STARLINK-3814,PAYLOAD,2024-02-28 08:11:13,15.08841724,0.0001268,53.2154,292.6757,82.7432,277.3704,4.0019e-05,3.49e-06,0.0,0 STARLINK-3814,1 52335U 22045E   24059.34112795  .00000349  00000-0  40019-4 0  9997,2 52335  53.2154 292.6757 0001268  82.7432 277.3704 15.08841724103870,6917.875,95.437,540.617,538.863,0.0
52335.0,STARLINK-3814,PAYLOAD,2024-02-28 20:54:18,15.08836353,0.0001352,53.2156,290.2969,79.6183,280.4961,0.00011909,1.608e-05,0.0,0 STARLINK-3814,1 52335U 22045E   24059.87105288  .00001608  00000-0  11909-3 0  9998,2 52335  53.2156 290.2969 0001352  79.6183 280.4961 15.08836353103954,6917.892,95.438,540.692,538.821,0.0
52335.0,STARLINK-3814,PAYLOAD,2024-02-29 14:23:33,15.0884006,0.0001532,53.2162,287.0268,80.2856,279.8309,5.0807e-05,5.21e-06,0.0,0 STARLINK-3814,1 52335U 22045E   24060.59969133  .00000521  00000-0  50807-4 0  9990,2 52335  53.2162 287.0268 0001532  80.2856 279.8309 15.08840060104063,6917.88,95.438,540.805,538.685,0.0
52335.0,STARLINK-3814,PAYLOAD,2024-02-29 22:20:29,15.0884124,0.0001393,53.2174,285.5394,84.3648,275.7503,6.3314e-05,7.2e-06,0.0,0 STARLINK-3814,1 52335U 22045E   24060.93089438  .00000720  00000-0  63314-4 0  9997,2 52335  53.2174 285.5394 0001393  84.3648 275.7503 15.08841240104116,6917.877,95.437,540.705,538.778,0.0
52335.0,STARLINK-3814,PAYLOAD,2024-02-29 23:55:52,15.08841575,0.0001415,53.2173,285.242,84.8611,275.2543,8.9404e-05,1.135e-05,0.0,0 STARLINK-3814,1 52335U 22045E   24060.99713348  .00001135  00000-0  89404-4 0  9996,2 52335  53.2173 285.2420 0001415  84.8611 275.2543 15.08841575104123,6917.876,95.437,540.719,538.762,0.0
